AKEBONO (EXOS-D)        
1 19822U 89016A   18311.45547662  .00027206  91242-7  50538-3 0  9995
2 19822  75.0334  57.2629 1821659 136.9668 238.9289 11.88199990969154
HST                     
1 20580U 90037B   18311.54025463  .00000523  00000-0  21018-4 0  9993
2 20580  28.4692 247.4046 0002527 239.5346  90.2985 15.09126029367142
POLAR                   
1 23802U 96013A   18311.29303246 -.00000144  00000-0  00000-0 0  9997
2 23802  78.6582 259.0455 6937756 303.2478   8.2645  1.29844371108770
SWAS                    
1 25560U 98071A   18311.58297448  .00000206  00000-0  28027-4 0  9995
2 25560  69.8999  62.4951 0006592 168.0508 192.0805 14.93654040 81232
ORSTED                  
1 25635U 99008B   18311.42968192  .00000064  00000-0  22543-4 0  9992
2 25635  96.4585 102.7697 0140348  66.5791 295.0094 14.48112060 39790
CXO                     
1 25867U 99040B   18312.09044920  .00000521  00000-0  00000+0 0  9990
2 25867  70.0696 280.1049 6977350 238.9041   0.3480  0.37806098 17976
XMM-NEWTON              
1 25989U 99066A   18313.21155917 -.00000455  00000-0  00000-0 0  9995
2 25989  70.5847 340.6435 7859196  95.6539 359.6652  0.50140266  9079
TERRA                   
1 25994U 99068A   18311.77176461 -.00000145  00000-0 -22124-4 0  9991
2 25994  98.2176  24.4944 0001568  91.4975 268.6374 14.57125740  4732
CLUSTER II-FM7 (SAMBA)  
1 26410U 00041A   18309.01513873  .00000531  00000-0  00000-0 0  9996
2 26410 131.0073 337.1809 4112347 166.1045   0.7760  0.44206221  7970
CLUSTER II-FM6 (SALSA)  
1 26411U 00041B   18313.70376022  .00000000  00000-0  00000-0 0  9992
2 26411 130.2701 338.3619 5015220 174.1264   0.8737  0.44225138  8038
CLUSTER II-FM5 (RUMBA)  
1 26463U 00045A   18313.75238966  .00000351  00000-0  00000-0 0  9991
2 26463 133.8506 337.3174 4701259 172.8563   0.7937  0.44164549  7928
CLUSTER II-FM8 (TANGO)  
1 26464U 00045B   18308.06720722  .00000526  00000-0  00000-0 0  9990
2 26464 131.0082 337.1706 4110506 166.0781 209.8918  0.44218956  7993
ODIN                    
1 26702U 01007A   18311.82960262 -.00000272  00000-0 -13713-4 0  9996
2 26702  97.5863 327.7189 0012568 112.9681 247.2874 15.07648056968272
TIMED                   
1 26998U 01055B   18311.56568279  .00000125  00000-0  17688-4 0  9999
2 26998  74.0739  23.4021 0002617 272.9005  87.1876 14.88061174917047
RHESSI                  
1 27370U 02004A   18311.55183104  .00002100  00000-0  73509-4 0  9997
2 27370  38.0320 184.1503 0013536 223.2038 136.7671 15.30759540924147
INTEGRAL                
1 27540U 02048A   18282.55299481  .00000589  00000-0  00000+0 0  9997
2 27540  48.8022 161.3352 8606838 270.9969   0.7118  0.37528858 16084
CORIOLIS                
1 27640U 03001A   18311.64424191  .00000015  00000-0  28025-4 0  9995
2 27640  98.7368 319.7904 0013112 287.9936 179.8833 14.18992685820054
SORCE                   
1 27651U 03004A   18311.57172388  .00000132  00000-0  27968-4 0  9995
2 27651  39.9970   7.9785 0022400 210.3544 149.5948 14.88920191856544
MOST                    
1 27843U 03031D   18311.86254470 -.00000015  00000-0  13187-4 0  9992
2 27843  98.7131 317.7026 0009858 354.5767   5.5302 14.20577526796172
SCISAT 1                
1 27858U 03036A   18311.51127006 -.00000018  00000-0  25065-5 0  9991
2 27858  73.9328 265.2248 0009374 252.1052 107.9100 14.77220969820839
SWIFT                   
1 28485U 04047A   18311.02435004  .00000898  00000-0  31335-4 0  9998
2 28485  20.5558 182.9689 0011240 175.3690 184.6849 15.04234968764768
FORMOSAT-3 FM6          
1 29047U 06011A   18311.39913176  .00000050  00000-0  35879-4 0  9994
2 29047  71.9794 230.1349 0050603 353.4924   6.5548 14.28655129657354
FORMOSAT-3 FM1          
1 29048U 06011B   18311.61028805  .00000062  00000-0  41043-4 0  9999
2 29048  71.9650 141.2999 0045247 310.8020  48.9194 14.28598880659855
FORMOSAT-3 FM5          
1 29049U 06011C   18311.43468597  .00000081  00000-0  48134-4 0  9995
2 29049  72.0194 309.9771 0035834 341.1895  18.7915 14.28678049655612
FORMOSAT-3 FM3          
1 29050U 06011D   18311.82258091  .00000155  00000-0  43108-4 0  9994
2 29050  72.0144 155.2495 0051441 311.3287  48.3444 14.58729765670731
FORMOSAT-3 FM4          
1 29051U 06011E   18311.86637344  .00000093  00000-0  52015-4 0  9999
2 29051  72.0062 212.2521 0069733 222.1617 137.4145 14.28704791658265
FORMOSAT-3 FM2          
1 29052U 06011F   18311.55681612  .00000047  00000-0  34599-4 0  9999
2 29052  72.0336 285.3379 0042192 303.8048  55.9074 14.28804034655721
CLOUDSAT                
1 29107U 06016A   18311.60480824  .00000049  00000-0  18983-4 0  9994
2 29107  98.1584 253.4510 0002752  72.6367 287.5135 14.62284369666412
CALIPSO                 
1 29108U 06016B   18311.60427515  .00000110  00000-0  31098-4 0  9994
2 29108  98.1605 253.2330 0001251  79.6349 280.4993 14.62268032666407
HINODE (SOLAR-B)        
1 29479U 06041A   18311.84179425  .00000081  00000-0  24262-4 0  9995
2 29479  98.1700 317.7895 0018146  60.1379 300.1624 14.64953324647873
SJ-6C                   
1 29505U 06046A   18311.88905403 -.00000401  00000-0 -31841-4 0  9996
2 29505  97.8289 317.2839 0002375 171.2480 188.8800 14.94470980655846
SJ-6D                   
1 29506U 06046B   18311.88252506 -.00000353  00000-0 -28137-4 0  9996
2 29506  97.8481 317.0242 0000921 303.8464  56.2717 14.93403115655476
AGILE                   
1 31135U 07013A   18311.71548703  .00002424  00000-0  41497-4 0  9994
2 31135   2.4674 104.5786 0012337   0.5342 359.4725 15.31132574641760
AIM                     
1 31304U 07015A   18311.57364549  .00000763  00000-0  47570-4 0  9994
2 31304  97.9807 159.6984 0004708 190.1784 169.9351 15.12807086631781
FGRST (GLAST)           
1 33053U 08029A   18310.65242333  .00000464  00000-0  98101-5 0  9992
2 33053  25.5818 149.5112 0012566  34.3539 325.7807 15.11149223574147
WISE                    
1 36119U 09071A   18311.65806475  .00000803  00000-0  30885-4 0  9991
2 36119  97.3998 343.3327 0001774 354.1227   5.9992 15.29291681493964
SDO                     
1 36395U 10005A   18311.53249031 -.00000038  00000-0  00000-0 0  9995
2 36395  29.4032 131.4199 0001625  61.6469 303.7225  1.00273327 32206
CRYOSAT 2               
1 36508U 10013A   18311.55315258  .00000110  00000-0  26485-4 0  9996
2 36508  92.0227 325.3726 0009381  61.6759 298.5393 14.52179799454937
X-SAT                   
1 37389U 11015C   18311.76684412 -.00000021  00000-0  94476-5 0  9999
2 37389  98.5170  17.6708 0013511 202.5803 157.4784 14.24363446392627
GCOM-W1 (SHIZUKU)       
1 38337U 12025A   18311.86952093  .00000065  00000-0  24596-4 0  9991
2 38337  98.2155 249.8885 0001030  41.2014  24.9786 14.57095029344432
NUSTAR                  
1 38358U 12031A   18311.39105527  .00000986  00000-0  29696-4 0  9999
2 38358   6.0258 219.9222 0011278  54.0712 306.0463 14.88060806348261
RBSP A                  
1 38752U 12046A   18311.25228594 -.00000130  00000-0 -18908-3 0  9994
2 38752  10.0528 317.2077 6821219 233.9259  42.3176  2.68157624 60518
RBSP B                  
1 38753U 12046B   18311.44221928 -.00000110  00000-0 -25777-3 0  9990
2 38753  10.0900 331.0135 6833526 207.2653  88.0444  2.65139163 60024
NEOSSAT                 
1 39089U 13009D   18311.82243215 -.00000013  00000-0  10764-4 0  9990
2 39089  98.5112 153.9316 0010261 228.4582 131.5723 14.34443654298319
IRIS                    
1 39197U 13033A   18311.62196053  .00000094  00000-0  20051-4 0  9990
2 39197  97.9413 130.8407 0027103 333.3827  26.5991 14.78575340289217
HISAKI (SPRINT-A)       
1 39253U 13049A   18311.42590467  .00000122  00000-0  76066-4 0  9994
2 39253  29.7206 302.1429 0137135 177.0584 183.0816 13.55193880255229
CASSIOPE                
1 39265U 13055A   18311.62340661  .00002584  00000-0  74509-4 0  9999
2 39265  80.9713 207.4464 0672335 217.1908 138.0879 14.26438519263916
STSAT-3                 
1 39422U 13066G   18311.73260491  .00000304  00000-0  37229-4 0  9996
2 39422  97.5915   0.9719 0022973 351.2755   8.8057 14.89667292269633
SWARM B                 
1 39451U 13067A   18311.58116663  .00000392  00000-0  15874-4 0  9992
2 39451  87.7493  95.9118 0001447  79.2613 280.8795 15.21432488260576
SWARM A                 
1 39452U 13067B   18311.60758632  .00001104  00000-0  23675-4 0  9994
2 39452  87.3466 345.0408 0003210  99.3792 260.7828 15.43441480278484
SWARM C                 
1 39453U 13067C   18311.60750498  .00001131  00000-0  24260-4 0  9998
2 39453  87.3470 346.4711 0003245  98.9801 261.1824 15.43441926278448
BRITE-TORONTO           
1 40020U 14033L   18311.84435443  .00000063  00000-0  19022-4 0  9993
2 40020  97.7664 162.7334 0088240 146.3834 214.3012 14.66529920234640
OCO 2                   
1 40059U 14035A   18311.57996061  .00000010  00000-0  12193-4 0  9999
2 40059  98.2083 250.7029 0001237  81.9879 278.1460 14.57100698231410
BRITE-PL 2              
1 40119U 14049B   18311.79637266  .00000098  00000-0  18220-4 0  9997
2 40119  97.9150  39.3245 0016505 225.6781 134.3081 14.84336214228606
RESURS P2               
1 40360U 14087A   18311.86384656  .00000820  00000-0  28242-4 0  9995
2 40360  97.2675  41.5947 0010835 122.2854 356.6210 15.32819499216285
MMS 1                   
1 40482U 15011A   18310.62500000 -.00000279  00000-0  00000+0 0  9990
2 40482   2.1161 351.1898 9064179 133.1200 300.0268  0.35510689  9456
MMS 2                   
1 40483U 15011B   18300.97116898 -.00000019  00000-0  00000+0 0  9998
2 40483   2.4003 343.7509 9066460 140.1357 146.2135  0.35508153  9408
MMS 3                   
1 40484U 15011C   18302.75844907 -.00000010  00000-0  00000+0 0  9997
2 40484   2.2923 346.0927 9066954 137.8772  14.6091  0.35514847  9428
MMS 4                   
1 40485U 15011D   18302.78125000 -.00000009  00000-0  00000+0 0  9995
2 40485   2.2784 345.8679 9067388 138.1088  17.5078  0.35515057  9411
ASTROSAT                
1 40930U 15052A   18310.72690679  .00000710  00000-0  10697-4 0  9993
2 40930   5.9912 218.3274 0008536 224.2836 135.6555 14.76219659168072
DAMPE                   
1 41173U 15078A   18311.90467444  .00000119  00000-0  78033-5 0  9996
2 41173  97.2975 310.7723 0014078 155.2752 265.8381 15.23737718160922
PISAT                   
1 41784U 16059B   18311.76741430  .00000121  00000-0  32634-4 0  9997
2 41784  98.1019  11.3960 0031960   5.6325 354.5230 14.63377424112955
HXMT (HUIYAN)           
1 42758U 17034A   18311.67248675  .00000255  00000-0  29860-4 0  9991
2 42758  43.0190  19.5634 0010874 292.3557 201.6430 15.08444540 77090
FLYING LAPTOP           
1 42831U 17042G   18311.85164389  .00000247  00000-0  30423-4 0  9999
2 42831  97.5830 208.7148 0015705  82.5180 277.7823 14.90913488 71735
PICSAT                  
1 43132U 18004X   18311.48860831  .00001444  00000-0  64446-4 0  9999
2 43132  97.5183  14.4528 0008813 324.9430  35.1226 15.22999570 45521
ZHANGZHENG-1 (CSES)     
1 43194U 18015C   18311.87489367  .00001037  00000-0  49788-4 0  9993
2 43194  97.3683  77.1462 0017104  14.7015 345.4717 15.20935636 42352
